IRIDIUM 36 [-]          
1 24967U 97056C   23241.65147322  .00000440  00000+0  14371-3 0  9993
2 24967  86.3916  89.0598 0002057  81.9436 278.1994 14.36374454357799
IRIDIUM 39 [-]          
1 25042U 97069D   23241.13969560  .00000599  00000+0  15789-3 0  9990
2 25042  86.3940 132.9420 0018114 348.7622  11.3174 14.47326034353982
IRIDIUM 38 [-]          
1 25043U 97069E   23241.12566135  .00000437  00000+0  14140-3 0  9992
2 25043  86.4014 149.7749 0004219  98.6578 261.5097 14.36855647351681
IRIDIUM 42 [-]          
1 25077U 97077A   23241.04186503  .00000410  00000+0  13651-3 0  9993
2 25077  86.4026 155.1716 0002827  90.2150 269.9371 14.35174128346760
IRIDIUM 44 [-]          
1 25078U 97077B   23241.15244427  .00000442  00000+0  13711-3 0  9998
2 25078  86.3992 138.8389 0003669  60.4736 299.6827 14.38955571349064
IRIDIUM 45 [-]          
1 25104U 97082A   23241.69869565  .00011286  00000+0  75007-3 0  9993
2 25104  86.3823 358.5877 0182432 215.9639 142.9204 14.94354172353308
IRIDIUM 24 [-]          
1 25105U 97082B   23241.39145211  .00000602  00000+0  18208-3 0  9996
2 25105  86.3966 358.8131 0013751  89.9592 270.3183 14.40700600348710
IRIDIUM 51 [-]          
1 25262U 98018A   23240.87962736  .00018267  00000+0  10443-2 0  9999
2 25262  86.3968   9.6193 0169862 175.3061 184.9817 15.01060103347270
